satname,norad_id,inclination_deg,eccentricity,mean_motion_rev_per_day,perigee_km,apogee_km,l1,l2
STARLINK-1554,46055,53.1591,0.0001196,15.31701455,469.9165327799019,471.55478311968454,1 46055U 20055AE  26144.92953200  .00001063  00000+0  46009-4 0  9991,2 46055  53.1591 119.4419 0001196  78.1874 281.9262 15.31701455320756
STARLINK-1564,46058,53.1589,0.0001644,15.30193839,474.1067710120533,476.3601592209843,1 46058U 20055AH  26144.90530152  .00001161  00000+0  51325-4 0  9995,2 46058  53.1589 120.3534 0001644  83.0526 277.0662 15.30193839320730
STARLINK-1570,46059,53.1571,0.0001071,15.31704207,469.9939410231991,471.46096778933315,1 46059U 20055AJ  26144.89222786  .00000586  00000+0  30652-4 0  9995,2 46059  53.1571 119.5003 0001071 106.0097 254.1023 15.31704207320708
STARLINK-1572,46060,53.1589,9.26e-05,15.3018569,474.6231724747222,475.8924211910962,1 46060U 20055AK  26144.95162447 -.00000235  00000+0  41763-5 0  9999,2 46060  53.1589 119.8862 0000926  79.7224 280.3882 15.30185690320714
STARLINK-1573,46061,53.16,0.0001163,15.31705995,469.92560218471044,471.51864681706866,1 46061U 20055AL  26144.94349559  .00000973  00000+0  43108-4 0  9992,2 46061  53.1600 119.2282 0001163  98.2574 261.8559 15.31705995320753
STARLINK-1577,46063,53.1602,0.0001274,15.31694684,469.88329304278795,471.6283909389267,1 46063U 20055AN  26144.90621167  .00000697  00000+0  34215-4 0  9990,2 46063  53.1602 119.3964 0001274 107.1131 253.0010 15.31694684320743
STARLINK-1583,46064,53.1605,0.0001415,15.30187961,474.281261534702,476.2207703432132,1 46064U 20055AP  26144.91575959  .00000509  00000+0  29338-4 0  9991,2 46064  53.1605 119.8012 0001415  96.0892 264.0270 15.30187961320736
STARLINK-1536,46070,53.1601,8.75e-05,15.31696799,470.15025968468944,471.3488148287088,1 46070U 20055AV  26144.92155138  .00000559  00000+0  29782-4 0  9990,2 46070  53.1601 107.2128 0000875  73.3013 286.8084 15.31696799320910
STARLINK-1542,46073,53.1634,0.000144,15.31699297,469.75585224378847,471.7283294219478,1 46073U 20055AY  26144.29341523 -.00001115  00000+0 -24172-4 0  9997,2 46073  53.1634 113.1029 0001440  91.5034 268.6132 15.31699297320760
STARLINK-1549,46074,53.0515,0.0004153,15.28060355,478.7622637794402,484.4599705655646,1 46074U 20055AZ  26144.22446200  .00033123  00000+0  12014-2 0  9991,2 46074  53.0515 110.4484 0004153  58.0739 302.0663 15.28060355320784
STARLINK-1551,46075,53.1611,0.0001225,15.30208411,474.35042325236554,476.0294883565375,1 46075U 20055BA  26144.17776477  .00001735  00000+0  70681-4 0  9998,2 46075  53.1611 110.4278 0001225  87.7357 272.3784 15.30208411320790
STARLINK-1552,46076,53.1606,9.11e-05,15.31706665,470.0961963952159,471.34405816380513,1 46076U 20055BB  26144.89851581  .00000724  00000+0  35086-4 0  9995,2 46076  53.1606 106.8368 0000911  91.6530 268.4575 15.31706665320892
STARLINK-1559,46077,53.0228,0.0002984,15.36676969,453.9046767132959,457.9832562340871,1 46077U 20055BC  26144.10334292  .00042045  00000+0  11609-2 0  9990,2 46077  53.0228  80.8599 0002984  55.8517 304.2768 15.36676969321159
STARLINK-1566,46079,53.1587,0.0001146,15.31708468,469.92987426372383,471.4996310854376,1 46079U 20055BE  26144.90315579  .00000766  00000+0  36447-4 0  9990,2 46079  53.1587 106.6638 0001146  79.3878 280.7252 15.31708468320915
STARLINK-1568,46080,53.0604,0.0004293,15.52733911,405.83427072705035,411.6614900853665,1 46080U 20055BF  26144.91795312  .00040261  00000+0  64463-3 0  9992,2 46080  53.0604  27.4571 0004293  54.6420 305.4990 15.52733911322018
STARLINK-1578,46082,53.1585,0.0001118,15.31697844,469.98071699039974,471.51212732359454,1 46082U 20055BH  26144.90754734  .00001963  00000+0  75023-4 0  9997,2 46082  53.1585 107.1585 0001118 105.2908 254.8217 15.31697844320903
STARLINK-1579,46083,53.1609,0.0001155,15.31727649,469.8665404616295,471.4486120087395,1 46083U 20055BJ  26144.17607611 -.00001463  00000+0 -35364-4 0  9999,2 46083  53.1609 110.1075 0001155  82.9986 277.1146 15.31727649320790
STARLINK-1622,46128,53.0163,0.0006875,15.79517613,327.19335246992705,336.4195246979798,1 46128U 20057M   26144.88209852  .00129989  00000+0  69290-3 0  9990,2 46128  53.0163 206.3425 0006875  13.9768 346.1442 15.79517613319342
STARLINK-1623,46129,53.0432,0.0004301,15.71461358,351.8238876591022,357.6154909832567,1 46129U 20057N   26144.76799510  .00086892  00000+0  66394-3 0  9990,2 46129  53.0432 244.1448 0004301 346.0068  14.0829 15.71461358318819
STARLINK-1624,46130,53.0218,0.0012342,16.185602,215.3162723949099,231.61166422508632,1 46130U 20057P   26144.55454347  .02028603  11799-4  11244-2 0  9998,2 46130  53.0218 209.2037 0012342 340.0954  19.9600 16.18560200320521
STARLINK-1596,46141,53.0351,0.0006101,15.56827575,392.71187541128984,400.9787088041194,1 46141U 20057AA  26144.72144072  .00067243  00000+0  91914-3 0  9992,2 46141  53.0351 225.3370 0006101 344.2287  15.8533 15.56827575319071
STARLINK-1597,46142,53.0428,0.0002097,15.71129117,354.2567587116937,357.08091688006516,1 46142U 20057AB  26144.80604590  .00094993  00000+0  73511-3 0  9993,2 46142  53.0428 283.6765 0002097  22.2105 337.9002 15.71129117318256
STARLINK-1606,46144,53.0392,0.0007013,15.83888677,314.75875964790885,324.15280328319295,1 46144U 20057AD  26145.00002315  .00165204  00000+0  71519-3 0  9995,2 46144  53.0392 237.2040 0007013 325.0580 150.4212 15.83888677  6018
STARLINK-1608,46146,53.1605,0.0001507,15.34481663,461.42965327783895,463.4914093737807,1 46146U 20057AF  26144.66024620  .00043596  00000+0  12906-2 0  9994,2 46146  53.1605 315.6134 0001507 276.7012  83.3819 15.34481663317828
STARLINK-1667,46155,53.0161,0.0008343,15.83351659,315.3810250395145,326.55915513002947,1 46155U 20057AQ  26145.00002315  .00217029  00000+0  95640-3 0  9991,2 46155  53.0161 205.4329 0008343  13.3813  82.9637 15.83351659  6008
STARLINK-1545,46156,53.0398,0.0005233,15.7813359,332.21557914947243,339.24231124771813,1 46156U 20057AR  26144.61954539  .00134529  00000+0  76320-3 0  9999,2 46156  53.0398 242.9994 0005233 304.6419  55.4107 15.78133590320066
STARLINK-1595,46159,53.043,0.0001949,15.69281114,359.64088859303683,362.2677863963927,1 46159U 20057AU  26144.69255697  .00082261  00000+0  68912-3 0  9992,2 46159  53.0430 286.7843 0001949 356.5122   3.5880 15.69281114319462
STARLINK-1598,46160,53.0455,0.0003068,15.69267781,358.92494415475176,363.06007402152864,1 46160U 20057AV  26144.79309629  .00077544  00000+0  65054-3 0  9992,2 46160  53.0455 272.4276 0003068 156.5731 203.5426 15.69267781319665
